{
  "links": {
    "next": "https://api.nasa.gov/neo/rest/v1/neo/browse?page=2&size=5&api_key=DEMO_KEY",
    "prev": "https://api.nasa.gov/neo/rest/v1/neo/browse?page=0&size=5&api_key=DEMO_KEY",
    "self": "https://api.nasa.gov/neo/rest/v1/neo/browse?page=1&size=5&api_key=DEMO_KEY"
  },
  "page": {
    "size": 5,
    "total_elements": 15378,
    "total_pages": 3075,
    "number": 1
  },
  "near_earth_objects": [
    {
      "links": {
        "self": "https://api.nasa.gov/neo/rest/v1/neo/2210012?api_key=DEMO_KEY"
      },
      "neo_reference_id": "2210012",
      "name": "210012 (2006 KT1)",
      "nasa_jpl_url": "http://ssd.jpl.nasa.gov/sbdb.cgi?sstr=2210012",
      "absolute_magnitude_h": 16.7,
      "estimated_diameter": {
        "kilometers": {
          "estimated_diameter_min": 1.214940408,
          "estimated_diameter_max": 2.7166893409
        },
        "meters": {
          "estimated_diameter_min": 1214.9404079963,
          "estimated_diameter_max": 2716.6893408911
        },
        "miles": {
          "estimated_diameter_min": 0.7549287363,
          "estimated_diameter_max": 1.6880719724
        },
        "feet": {
          "estimated_diameter_min": 3986.0250881707,
          "estimated_diameter_max": 8913.0230571693
        }
      },
      "is_potentially_hazardous_asteroid": false,
      "close_approach_data": [
        {
          "close_approach_date": "1956-01-02",
          "epoch_date_close_approach": -441734400000,
          "relative_velocity": {
            "kilometers_per_second": "1.9913563018",
            "kilometers_per_hour": "7168.8826865933",
            "miles_per_hour": "4454.4649115668"
          },
          "miss_distance": {
            "astronomical": "1.9594317014",
            "lunar": "762.2189331055",
            "kilometers": "293126816",
            "miles": "182140560"
          },
          "orbiting_body": "Juptr"
        },
        {
          "close_approach_date": "2110-01-27",
          "epoch_date_close_approach": 4420252800000,
          "relative_velocity": {
            "kilometers_per_second": "1.9863640667",
            "kilometers_per_hour": "7150.9106402072",
            "miles_per_hour": "4443.2977808554"
          },
          "miss_distance": {
            "astronomical": "1.9624458225",
            "lunar": "763.391418457",
            "kilometers": "293577728",
            "miles": "182420736"
          },
          "orbiting_body": "Juptr"
        },
        {
          "close_approach_date": "2169-09-12",
          "epoch_date_close_approach": 6301868400000,
          "relative_velocity": {
            "kilometers_per_second": "1.9890701792",
            "kilometers_per_hour": "7160.6526452536",
            "miles_per_hour": "4449.3510839355"
          },
          "miss_distance": {
            "astronomical": "1.9668421995",
            "lunar": "765.1016235352",
            "kilometers": "294235392",
            "miles": "182829408"
          },
          "orbiting_body": "Juptr"
        }
      ],
      "orbital_data": {
        "orbit_id": "63",
        "orbit_determination_date": "2016-05-24 18:53:12",
        "orbit_uncertainty": "0",
        "minimum_orbit_intersection": ".206074",
        "jupiter_tisserand_invariant": "3.413",
        "epoch_osculation": "2457800.5",
        "eccentricity": ".472949242075312",
        "semi_major_axis": "2.307253101760772",
        "inclination": "9.250679534783488",
        "ascending_node_longitude": "138.6686716137808",
        "orbital_period": "1280.092298242038",
        "perihelion_distance": "1.216039496007102",
        "perihelion_argument": "189.3443880516503",
        "aphelion_distance": "3.398466707514441",
        "perihelion_time": "2457894.538797916777",
        "mean_anomaly": "333.5534950905246",
        "mean_motion": ".281229721086824",
        "equinox": "J2000"
      }
    },
    {
      "links": {
        "self": "https://api.nasa.gov/neo/rest/v1/neo/2276274?api_key=DEMO_KEY"
      },
      "neo_reference_id": "2276274",
      "name": "276274 (2002 SS41)",
      "nasa_jpl_url": "http://ssd.jpl.nasa.gov/sbdb.cgi?sstr=2276274",
      "absolute_magnitude_h": 17.2,
      "estimated_diameter": {
        "kilometers": {
          "estimated_diameter_min": 0.9650614696,
          "estimated_diameter_max": 2.1579430484
        },
        "meters": {
          "estimated_diameter_min": 965.0614695789,
          "estimated_diameter_max": 2157.9430484443
        },
        "miles": {
          "estimated_diameter_min": 0.5996612104,
          "estimated_diameter_max": 1.34088323
        },
        "feet": {
          "estimated_diameter_min": 3166.2122718533,
          "estimated_diameter_max": 7079.8658710581
        }
      },
      "is_potentially_hazardous_asteroid": false,
      "close_approach_data": [],
      "orbital_data": {
        "orbit_id": "94",
        "orbit_determination_date": "2015-01-08 11:12:05",
        "orbit_uncertainty": "0",
        "minimum_orbit_intersection": ".600743",
        "jupiter_tisserand_invariant": "2.993",
        "epoch_osculation": "2457600.5",
        "eccentricity": ".3826831275030616",
        "semi_major_axis": "2.104740374542074",
        "inclination": "63.68286998824724",
        "ascending_node_longitude": "190.125241798393",
        "orbital_period": "1115.311614869463",
        "perihelion_distance": "1.299291745430348",
        "perihelion_argument": "101.8029165672748",
        "aphelion_distance": "2.9101890036538",
        "perihelion_time": "2457977.671756231325",
        "mean_anomaly": "238.2565962435808",
        "mean_motion": ".3227797462166075",
        "equinox": "J2000"
      }
    },
    {
      "links": {
        "self": "https://api.nasa.gov/neo/rest/v1/neo/2277473?api_key=DEMO_KEY"
      },
      "neo_reference_id": "2277473",
      "name": "277473 (2005 WD1)",
      "nasa_jpl_url": "http://ssd.jpl.nasa.gov/sbdb.cgi?sstr=2277473",
      "absolute_magnitude_h": 16.9,
      "estimated_diameter": {
        "kilometers": {
          "estimated_diameter_min": 1.1080388213,
          "estimated_diameter_max": 2.4776501261
        },
        "meters": {
          "estimated_diameter_min": 1108.0388212642,
          "estimated_diameter_max": 2477.6501260554
        },
        "miles": {
          "estimated_diameter_min": 0.6885031904,
          "estimated_diameter_max": 1.5395399365
        },
        "feet": {
          "estimated_diameter_min": 3635.2980863563,
          "estimated_diameter_max": 8128.7736395675
        }
      },
      "is_potentially_hazardous_asteroid": false,
      "close_approach_data": [
        {
          "close_approach_date": "1930-08-27",
          "epoch_date_close_approach": -1241712000000,
          "relative_velocity": {
            "kilometers_per_second": "19.2131990242",
            "kilometers_per_hour": "69167.5164870088",
            "miles_per_hour": "42978.0048971639"
          },
          "miss_distance": {
            "astronomical": "0.0869154122",
            "lunar": "33.8100967407",
            "kilometers": "13002361",
            "miles": "8079292.5"
          },
          "orbiting_body": "Mars"
        },
        {
          "close_approach_date": "1933-11-01",
          "epoch_date_close_approach": -1141315200000,
          "relative_velocity": {
            "kilometers_per_second": "22.8034070315",
            "kilometers_per_hour": "82092.2653135408",
            "miles_per_hour": "51008.9411888498"
          },
          "miss_distance": {
            "astronomical": "0.4921569409",
            "lunar": "191.4490509033",
            "kilometers": "73625632",
            "miles": "45748848"
          },
          "orbiting_body": "Earth"
        }
      ],
      "orbital_data": {
        "orbit_id": "58",
        "orbit_determination_date": "2014-10-09 21:07:14",
        "orbit_uncertainty": "0",
        "minimum_orbit_intersection": ".497163",
        "jupiter_tisserand_invariant": "3.218",
        "epoch_osculation": "2457800.5",
        "eccentricity": ".4419463232626759",
        "semi_major_axis": "2.199832941076063",
        "inclination": "43.06420193537249",
        "ascending_node_longitude": "52.34181144504754",
        "orbital_period": "1191.744011906771",
        "perihelion_distance": "1.227624860975378",
        "perihelion_argument": "285.8769816996484",
        "aphelion_distance": "3.172041021176747",
        "perihelion_time": "2458286.406942731583",
        "mean_anomaly": "213.2180588820496",
        "mean_motion": ".3020782956769431",
        "equinox": "J2000"
      }
    }
  ]
}
